ACS3                    
1 59588U 24077B   24226.16304933  .00000100  00000+0  15225-3 0  9998
2 59588  97.4024 281.1011 0018925 300.5585  59.3699 13.67697074 15195
